{
  "type": "FeatureCollection",
  "features": [
    {
      "type": "Feature",
      "properties": {
        "norad_id": 67053,
        "name": "STARLINK-35739",
        "group": "last-30-days",
        "lat": -32.40670891723086,
        "lon": -28.696103469552405,
        "alt_km": 352.7495936239138,
        "timestamp": "2025-12-24T18:55:54.779247+00:00",
        "meta_object_name": "STARLINK-35739",
        "meta_object_id": "2025-294Z",
        "meta_epoch": "2025-12-24T06:00:02.000160",
        "meta_mean_motion": 15.75068547,
        "meta_eccentricity": 0.00014699,
        "meta_inclination": 43.0004,
        "meta_ra_of_asc_node": 111.6298,
        "meta_arg_of_pericenter": 274.2205,
        "meta_mean_anomaly": 140.8754,
        "meta_ephemeris_type": 0,
        "meta_classification_type": "U",
        "meta_norad_cat_id": 67053,
        "meta_element_set_no": 999,
        "meta_rev_at_epoch": 180,
        "meta_bstar": -0.014201125,
        "meta_mean_motion_dot": -0.01899713,
        "meta_mean_motion_ddot": 0,
        "tle_line1": "1 67053U 25294Z   25358.25002315 -.01899713  00000+0 -14201-1 0  9992",
        "tle_line2": "2 67053  43.0004 111.6298 0001469 274.2205 140.8754 15.75068547  1800"
      },
      "geometry": {
        "type": "Point",
        "coordinates": [
          -28.696103469552405,
          -32.40670891723086
        ]
      }
    },
    {
      "type": "Feature",
      "properties": {
        "norad_id": 67054,
        "name": "STARLINK-35754",
        "group": "last-30-days",
        "lat": -33.52816382807624,
        "lon": -26.318761575131454,
        "alt_km": 352.8677193391768,
        "timestamp": "2025-12-24T18:55:54.779257+00:00",
        "meta_object_name": "STARLINK-35754",
        "meta_object_id": "2025-294AA",
        "meta_epoch": "2025-12-24T06:00:02.000160",
        "meta_mean_motion": 15.75056665,
        "meta_eccentricity": 0.0001435,
        "meta_inclination": 43.0001,
        "meta_ra_of_asc_node": 111.6241,
        "meta_arg_of_pericenter": 275.6591,
        "meta_mean_anomaly": 141.7594,
        "meta_ephemeris_type": 0,
        "meta_classification_type": "U",
        "meta_norad_cat_id": 67054,
        "meta_element_set_no": 999,
        "meta_rev_at_epoch": 196,
        "meta_bstar": -0.014240759,
        "meta_mean_motion_dot": -0.01903401,
        "meta_mean_motion_ddot": 0,
        "tle_line1": "1 67054U 25294AA  25358.25002315 -.01903401  00000+0 -14241-1 0  9997",
        "tle_line2": "2 67054  43.0001 111.6241 0001435 275.6591 141.7594 15.75056665  1969"
      },
      "geometry": {
        "type": "Point",
        "coordinates": [
          -26.318761575131454,
          -33.52816382807624
        ]
      }
    },
    {
      "type": "Feature",
      "properties": {
        "norad_id": 67055,
        "name": "STARLINK-35790",
        "group": "last-30-days",
        "lat": -34.57354293986266,
        "lon": -23.949776639838266,
        "alt_km": 352.9644768100552,
        "timestamp": "2025-12-24T18:55:54.779269+00:00",
        "meta_object_name": "STARLINK-35790",
        "meta_object_id": "2025-294AB",
        "meta_epoch": "2025-12-24T06:00:02.000160",
        "meta_mean_motion": 15.75033127,
        "meta_eccentricity": 0.00014193,
        "meta_inclination": 42.9999,
        "meta_ra_of_asc_node": 111.6178,
        "meta_arg_of_pericenter": 276.9931,
        "meta_mean_anomaly": 142.6927,
        "meta_ephemeris_type": 0,
        "meta_classification_type": "U",
        "meta_norad_cat_id": 67055,
        "meta_element_set_no": 999,
        "meta_rev_at_epoch": 215,
        "meta_bstar": -0.014193604,
        "meta_mean_motion_dot": -0.01896223,
        "meta_mean_motion_ddot": 0,
        "tle_line1": "1 67055U 25294AB  25358.25002315 -.01896223  00000+0 -14194-1 0  9998",
        "tle_line2": "2 67055  42.9999 111.6178 0001419 276.9931 142.6927 15.75033127  2157"
      },
      "geometry": {
        "type": "Point",
        "coordinates": [
          -23.949776639838266,
          -34.57354293986266
        ]
      }
    },
    {
      "type": "Feature",
      "properties": {
        "norad_id": 67056,
        "name": "STARLINK-36143",
        "group": "last-30-days",
        "lat": -37.17012886664178,
        "lon": -17.20428523031569,
        "alt_km": 353.07096210179225,
        "timestamp": "2025-12-24T18:55:54.779281+00:00",
        "meta_object_name": "STARLINK-36143",
        "meta_object_id": "2025-294AC",
        "meta_epoch": "2025-12-24T06:00:02.000160",
        "meta_mean_motion": 15.7501803,
        "meta_eccentricity": 0.00015277,
        "meta_inclination": 43,
        "meta_ra_of_asc_node": 111.6021,
        "meta_arg_of_pericenter": 280.2063,
        "meta_mean_anomaly": 145.586,
        "meta_ephemeris_type": 0,
        "meta_classification_type": "U",
        "meta_norad_cat_id": 67056,
        "meta_element_set_no": 999,
        "meta_rev_at_epoch": 215,
        "meta_bstar": -0.014255415,
        "meta_mean_motion_dot": -0.01902366,
        "meta_mean_motion_ddot": 0,
        "tle_line1": "1 67056U 25294AC  25358.25002315 -.01902366  00000+0 -14255-1 0  9993",
        "tle_line2": "2 67056  43.0000 111.6021 0001527 280.2063 145.5860 15.75018030  2158"
      },
      "geometry": {
        "type": "Point",
        "coordinates": [
          -17.20428523031569,
          -37.17012886664178
        ]
      }
    },
    {
      "type": "Feature",
      "properties": {
        "norad_id": 67057,
        "name": "STARLINK-36141",
        "group": "last-30-days",
        "lat": -36.32416095928637,
        "lon": -19.56331447563983,
        "alt_km": 352.992840724467,
        "timestamp": "2025-12-24T18:55:54.779292+00:00",
        "meta_object_name": "STARLINK-36141",
        "meta_object_id": "2025-294AD",
        "meta_epoch": "2025-12-24T06:00:02.000160",
        "meta_mean_motion": 15.75022747,
        "meta_eccentricity": 0.00014707,
        "meta_inclination": 43,
        "meta_ra_of_asc_node": 111.608,
        "meta_arg_of_pericenter": 276.4929,
        "meta_mean_anomaly": 147.2054,
        "meta_ephemeris_type": 0,
        "meta_classification_type": "U",
        "meta_norad_cat_id": 67057,
        "meta_element_set_no": 999,
        "meta_rev_at_epoch": 207,
        "meta_bstar": -0.014214672,
        "meta_mean_motion_dot": -0.01897951,
        "meta_mean_motion_ddot": 0,
        "tle_line1": "1 67057U 25294AD  25358.25002315 -.01897951  00000+0 -14215-1 0  9993",
        "tle_line2": "2 67057  43.0000 111.6080 0001470 276.4929 147.2054 15.75022747  2074"
      },
      "geometry": {
        "type": "Point",
        "coordinates": [
          -19.56331447563983,
          -36.32416095928637
        ]
      }
    },
    {
      "type": "Feature",
      "properties": {
        "norad_id": 67058,
        "name": "STARLINK-35767",
        "group": "last-30-days",
        "lat": -35.483416842526196,
        "lon": -21.744483988703653,
        "alt_km": 352.9042275387683,
        "timestamp": "2025-12-24T18:55:54.779302+00:00",
        "meta_object_name": "STARLINK-35767",
        "meta_object_id": "2025-294AE",
        "meta_epoch": "2025-12-24T06:00:02.000160",
        "meta_mean_motion": 15.75031225,
        "meta_eccentricity": 0.00015089,
        "meta_inclination": 43.0002,
        "meta_ra_of_asc_node": 111.6127,
        "meta_arg_of_pericenter": 274.3748,
        "meta_mean_anomaly": 147.3473,
        "meta_ephemeris_type": 0,
        "meta_classification_type": "U",
        "meta_norad_cat_id": 67058,
        "meta_element_set_no": 999,
        "meta_rev_at_epoch": 196,
        "meta_bstar": -0.014227836,
        "meta_mean_motion_dot": -0.01900123,
        "meta_mean_motion_ddot": 0,
        "tle_line1": "1 67058U 25294AE  25358.25002315 -.01900123  00000+0 -14228-1 0  9994",
        "tle_line2": "2 67058  43.0002 111.6127 0001508 274.3748 147.3473 15.75031225  1961"
      },
      "geometry": {
        "type": "Point",
        "coordinates": [
          -21.744483988703653,
          -35.483416842526196
        ]
      }
    },
    {
      "type": "Feature",
      "properties": {
        "norad_id": 67059,
        "name": "HULIANWANG DIGUI-119",
        "group": "last-30-days",
        "lat": 37.47075560270624,
        "lon": 101.36037249862568,
        "alt_km": 814.1889229830149,
        "timestamp": "2025-12-24T18:55:54.779314+00:00",
        "meta_object_name": "HULIANWANG DIGUI-119",
        "meta_object_id": "2025-295A",
        "meta_epoch": "2025-12-24T06:33:04.094784",
        "meta_mean_motion": 14.24616242,
        "meta_eccentricity": 0.00140204,
        "meta_inclination": 50.005,
        "meta_ra_of_asc_node": 323.5873,
        "meta_arg_of_pericenter": 287.1062,
        "meta_mean_anomaly": 72.8315,
        "meta_ephemeris_type": 0,
        "meta_classification_type": "U",
        "meta_norad_cat_id": 67059,
        "meta_element_set_no": 999,
        "meta_rev_at_epoch": 176,
        "meta_bstar": 7.4556614e-05,
        "meta_mean_motion_dot": 1.5e-07,
        "meta_mean_motion_ddot": 0,
        "tle_line1": "1 67059U 25295A   25358.27296406  .00000015  00000+0  74557-4 0  9996",
        "tle_line2": "2 67059  50.0050 323.5873 0014020 287.1062  72.8315 14.24616242  1765"
      },
      "geometry": {
        "type": "Point",
        "coordinates": [
          101.36037249862568,
          37.47075560270624
        ]
      }
    }
  ]
}